[{"OBJECT_NAME":"RASSVET-3 14","OBJECT_ID":"2026-061P","EPOCH":"2026-04-07T20:00:39.190752","MEAN_MOTION":15.89879684,"ECCENTRICITY":0.0024393,"INCLINATION":82.2975,"RA_OF_ASC_NODE":91.5812,"ARG_OF_PERICENTER":17.9016,"MEAN_ANOMALY":342.3108,"EPHEMERIS_TYPE":0,"CLASSIFICATION_TYPE":"U","NORAD_CAT_ID":68373,"ELEMENT_SET_NO":999,"REV_AT_EPOCH":240,"BSTAR":9.3578e-5,"MEAN_MOTION_DOT":0.00028739,"MEAN_MOTION_DDOT":-8.2752e-7},{"OBJECT_NAME":"RASSVET-3 15","OBJECT_ID":"2026-061Q","EPOCH":"2026-04-07T20:00:18.180000","MEAN_MOTION":15.90067676,"ECCENTRICITY":0.002385,"INCLINATION":82.2972,"RA_OF_ASC_NODE":91.581,"ARG_OF_PERICENTER":17.9307,"MEAN_ANOMALY":342.28,"EPHEMERIS_TYPE":0,"CLASSIFICATION_TYPE":"U","NORAD_CAT_ID":68374,"ELEMENT_SET_NO":999,"REV_AT_EPOCH":240,"BSTAR":0.0003527,"MEAN_MOTION_DOT":0.00108249,"MEAN_MOTION_DDOT":2.9745e-6},{"OBJECT_NAME":"RASSVET-3 16","OBJECT_ID":"2026-061R","EPOCH":"2026-04-07T10:52:18.060384","MEAN_MOTION":15.89737986,"ECCENTRICITY":0.00230282,"INCLINATION":82.2962,"RA_OF_ASC_NODE":92.0033,"ARG_OF_PERICENTER":24.0595,"MEAN_ANOMALY":336.1747,"EPHEMERIS_TYPE":0,"CLASSIFICATION_TYPE":"U","NORAD_CAT_ID":68375,"ELEMENT_SET_NO":999,"REV_AT_EPOCH":234,"BSTAR":0.00037908901,"MEAN_MOTION_DOT":0.00114197,"MEAN_MOTION_DDOT":3.423466e-6},{"OBJECT_NAME":"SUPERVIEW NEO-2 OBJECT A","OBJECT_ID":"2026-062A","EPOCH":"2026-04-06T05:59:20.216256","MEAN_MOTION":15.20635232,"ECCENTRICITY":0.00066673,"INCLINATION":97.4366,"RA_OF_ASC_NODE":104.581,"ARG_OF_PERICENTER":222.4946,"MEAN_ANOMALY":137.5774,"EPHEMERIS_TYPE":0,"CLASSIFICATION_TYPE":"U","NORAD_CAT_ID":68377,"ELEMENT_SET_NO":999,"REV_AT_EPOCH":172,"BSTAR":0.00017460966,"MEAN_MOTION_DOT":3.763e-5,"MEAN_MOTION_DDOT":0},{"OBJECT_NAME":"SUPERVIEW NEO-2 OBJECT B","OBJECT_ID":"2026-062B","EPOCH":"2026-04-07T02:31:16.537728","MEAN_MOTION":15.2003229,"ECCENTRICITY":0.00074582,"INCLINATION":97.4352,"RA_OF_ASC_NODE":105.4222,"ARG_OF_PERICENTER":218.5897,"MEAN_ANOMALY":141.4806,"EPHEMERIS_TYPE":0,"CLASSIFICATION_TYPE":"U","NORAD_CAT_ID":68378,"ELEMENT_SET_NO":999,"REV_AT_EPOCH":185,"BSTAR":0.00016455912,"MEAN_MOTION_DOT":3.481e-5,"MEAN_MOTION_DDOT":0},{"OBJECT_NAME":"STARLINK-36296","OBJECT_ID":"2026-063A","EPOCH":"2026-04-07T22:08:25.143072","MEAN_MOTION":16.00716482,"ECCENTRICITY":0.0002516,"INCLINATION":97.2837,"RA_OF_ASC_NODE":239.1511,"ARG_OF_PERICENTER":340.5305,"MEAN_ANOMALY":19.5877,"EPHEMERIS_TYPE":0,"CLASSIFICATION_TYPE":"U","NORAD_CAT_ID":68380,"ELEMENT_SET_NO":999,"REV_AT_EPOCH":224,"BSTAR":0.0010605,"MEAN_MOTION_DOT":0.0055828,"MEAN_MOTION_DDOT":0.00014084},{"OBJECT_NAME":"STARLINK-37111","OBJECT_ID":"2026-063B","EPOCH":"2026-04-07T20:00:00.999360","MEAN_MOTION":15.80765096,"ECCENTRICITY":8.96e-5,"INCLINATION":97.2841,"RA_OF_ASC_NODE":238.9788,"ARG_OF_PERICENTER":97.1161,"MEAN_ANOMALY":298.5633,"EPHEMERIS_TYPE":0,"CLASSIFICATION_TYPE":"U","NORAD_CAT_ID":68381,"ELEMENT_SET_NO":999,"REV_AT_EPOCH":314,"BSTAR":0.00061024,"MEAN_MOTION_DOT":0.00118065,"MEAN_MOTION_DDOT":0},{"OBJECT_NAME":"STARLINK-36946","OBJECT_ID":"2026-063C","EPOCH":"2026-04-07T20:00:00.999360","MEAN_MOTION":15.80743528,"ECCENTRICITY":0.000135,"INCLINATION":97.2842,"RA_OF_ASC_NODE":238.98,"ARG_OF_PERICENTER":98.9483,"MEAN_ANOMALY":301.0127,"EPHEMERIS_TYPE":0,"CLASSIFICATION_TYPE":"U","NORAD_CAT_ID":68382,"ELEMENT_SET_NO":999,"REV_AT_EPOCH":314,"BSTAR":0.00087675,"MEAN_MOTION_DOT":0.00170554,"MEAN_MOTION_DDOT":0},{"OBJECT_NAME":"STARLINK-37121","OBJECT_ID":"2026-063D","EPOCH":"2026-04-07T20:00:00.999360","MEAN_MOTION":15.80776932,"ECCENTRICITY":0.0001294,"INCLINATION":97.2842,"RA_OF_ASC_NODE":238.9845,"ARG_OF_PERICENTER":77.1113,"MEAN_ANOMALY":331.3922,"EPHEMERIS_TYPE":0,"CLASSIFICATION_TYPE":"U","NORAD_CAT_ID":68383,"ELEMENT_SET_NO":999,"REV_AT_EPOCH":314,"BSTAR":0.00049789,"MEAN_MOTION_DOT":0.00096112,"MEAN_MOTION_DDOT":0},{"OBJECT_NAME":"STARLINK-37137","OBJECT_ID":"2026-063E","EPOCH":"2026-04-07T20:00:00.999360","MEAN_MOTION":15.81171263,"ECCENTRICITY":0.0001447,"INCLINATION":97.2841,"RA_OF_ASC_NODE":238.9813,"ARG_OF_PERICENTER":72.7263,"MEAN_ANOMALY":331.4502,"EPHEMERIS_TYPE":0,"CLASSIFICATION_TYPE":"U","NORAD_CAT_ID":68384,"ELEMENT_SET_NO":999,"REV_AT_EPOCH":314,"BSTAR":-0.008101,"MEAN_MOTION_DOT":-0.01404836,"MEAN_MOTION_DDOT":0},{"OBJECT_NAME":"STARLINK-37128","OBJECT_ID":"2026-063F","EPOCH":"2026-04-07T20:00:00.999360","MEAN_MOTION":15.80804843,"ECCENTRICITY":9.46e-5,"INCLINATION":97.2841,"RA_OF_ASC_NODE":238.9863,"ARG_OF_PERICENTER":96.4629,"MEAN_ANOMALY":316.3258,"EPHEMERIS_TYPE":0,"CLASSIFICATION_TYPE":"U","NORAD_CAT_ID":68385,"ELEMENT_SET_NO":999,"REV_AT_EPOCH":309,"BSTAR":0.00027081,"MEAN_MOTION_DOT":0.00052013,"MEAN_MOTION_DDOT":0},{"OBJECT_NAME":"STARLINK-37198","OBJECT_ID":"2026-063G","EPOCH":"2026-04-07T20:00:00.999360","MEAN_MOTION":15.80807719,"ECCENTRICITY":0.0001105,"INCLINATION":97.2842,"RA_OF_ASC_NODE":238.9878,"ARG_OF_PERICENTER":92.768,"MEAN_ANOMALY":324.29,"EPHEMERIS_TYPE":0,"CLASSIFICATION_TYPE":"U","NORAD_CAT_ID":68386,"ELEMENT_SET_NO":999,"REV_AT_EPOCH":314,"BSTAR":0.00035156,"MEAN_MOTION_DOT":0.00067696,"MEAN_MOTION_DDOT":0},{"OBJECT_NAME":"STARLINK-37223","OBJECT_ID":"2026-063H","EPOCH":"2026-04-07T20:00:00.999360","MEAN_MOTION":15.80802752,"ECCENTRICITY":0.0001257,"INCLINATION":97.2841,"RA_OF_ASC_NODE":238.9896,"ARG_OF_PERICENTER":96.1093,"MEAN_ANOMALY":325.2281,"EPHEMERIS_TYPE":0,"CLASSIFICATION_TYPE":"U","NORAD_CAT_ID":68387,"ELEMENT_SET_NO":999,"REV_AT_EPOCH":314,"BSTAR":0.0003934,"MEAN_MOTION_DOT":0.00075825,"MEAN_MOTION_DDOT":0},{"OBJECT_NAME":"STARLINK-37203","OBJECT_ID":"2026-063J","EPOCH":"2026-04-07T20:00:00.999360","MEAN_MOTION":15.8075117,"ECCENTRICITY":0.0001283,"INCLINATION":97.2842,"RA_OF_ASC_NODE":238.9915,"ARG_OF_PERICENTER":84.1448,"MEAN_ANOMALY":341.4541,"EPHEMERIS_TYPE":0,"CLASSIFICATION_TYPE":"U","NORAD_CAT_ID":68388,"ELEMENT_SET_NO":999,"REV_AT_EPOCH":314,"BSTAR":0.00094872,"MEAN_MOTION_DOT":0.00184938,"MEAN_MOTION_DDOT":0},{"OBJECT_NAME":"STARLINK-37197","OBJECT_ID":"2026-063K","EPOCH":"2026-04-07T20:00:00.999360","MEAN_MOTION":15.80837545,"ECCENTRICITY":0.0001325,"INCLINATION":97.2842,"RA_OF_ASC_NODE":238.9942,"ARG_OF_PERICENTER":79.4957,"MEAN_ANOMALY":354.6553,"EPHEMERIS_TYPE":0,"CLASSIFICATION_TYPE":"U","NORAD_CAT_ID":68389,"ELEMENT_SET_NO":999,"REV_AT_EPOCH":314,"BSTAR":-0.00013238,"MEAN_MOTION_DOT":-0.00025449,"MEAN_MOTION_DDOT":0}]
