RASSVET-3 14            
1 68373U 26061P   26097.83378693  .00028739 -82752-6  93578-4 0  9999
2 68373  82.2975  91.5812 0024393  17.9016 342.3108 15.89879684  2405
RASSVET-3 15            
1 68374U 26061Q   26097.83354375  .00108249  29745-5  35270-3 0  9991
2 68374  82.2972  91.5810 0023850  17.9307 342.2800 15.90067676  2401
RASSVET-3 16            
1 68375U 26061R   26097.45298681  .00114197  34235-5  37909-3 0  9997
2 68375  82.2962  92.0033 0023028  24.0595 336.1747 15.89737986  2340
SUPERVIEW NEO-2 OBJECT A
1 68377U 26062A   26096.24953954  .00003763  00000+0  17461-3 0  9991
2 68377  97.4366 104.5810 0006667 222.4946 137.5774 15.20635232  1724
SUPERVIEW NEO-2 OBJECT B
1 68378U 26062B   26097.10505252  .00003481  00000+0  16456-3 0  9992
2 68378  97.4352 105.4222 0007458 218.5897 141.4806 15.20032290  1856
STARLINK-36296          
1 68380U 26063A   26097.92251323  .00558280  14084-3  10605-2 0  9995
2 68380  97.2837 239.1511 0002516 340.5305  19.5877 16.00716482  2249
STARLINK-37111          
1 68381U 26063B   26097.83334490  .00118065  00000+0  61024-3 0  9997
2 68381  97.2841 238.9788 0000896  97.1161 298.5633 15.80765096  3143
STARLINK-36946          
1 68382U 26063C   26097.83334490  .00170554  00000+0  87675-3 0  9999
2 68382  97.2842 238.9800 0001350  98.9483 301.0127 15.80743528  3146
STARLINK-37121          
1 68383U 26063D   26097.83334490  .00096112  00000+0  49789-3 0  9991
2 68383  97.2842 238.9845 0001294  77.1113 331.3922 15.80776932  3146
STARLINK-37137          
1 68384U 26063E   26097.83334490 -.01404836  00000+0 -81010-2 0  9993
2 68384  97.2841 238.9813 0001447  72.7263 331.4502 15.81171263  3140
STARLINK-37128          
1 68385U 26063F   26097.83334490  .00052013  00000+0  27081-3 0  9996
2 68385  97.2841 238.9863 0000946  96.4629 316.3258 15.80804843  3098
STARLINK-37198          
1 68386U 26063G   26097.83334490  .00067696  00000+0  35156-3 0  9992
2 68386  97.2842 238.9878 0001105  92.7680 324.2900 15.80807719  3143
STARLINK-37223          
1 68387U 26063H   26097.83334490  .00075825  00000+0  39340-3 0  9995
2 68387  97.2841 238.9896 0001257  96.1093 325.2281 15.80802752  3142
STARLINK-37203          
1 68388U 26063J   26097.83334490  .00184938  00000+0  94872-3 0  9993
2 68388  97.2842 238.9915 0001283  84.1448 341.4541 15.80751170  3142
STARLINK-37197          
1 68389U 26063K   26097.83334490 -.00025449  00000+0 -13238-3 0  9994
2 68389  97.2842 238.9942 0001325  79.4957 354.6553 15.80837545  3142
